ONEWEB-0564             
1 55801U 23029F   24253.15648346  .00000079  00000+0  16258-3 0  9998
2 55801  87.9225  42.9693 0001810  80.6978 279.4360 13.20773663 76580
ONEWEB-0638             
1 55802U 23029G   24253.15307663  .00000267  00000+0  68612-3 0  9993
2 55802  87.8943  58.2376 0001089  81.0658 279.0595 13.14499697 75235
ONEWEB-0639             
1 55803U 23029H   24252.92120636  .00000124  00000+0  27753-3 0  9994
2 55803  87.9099  73.5297 0001922 135.2137 224.9151 13.19722678 73666
ONEWEB-0640             
1 55804U 23029J   24253.16259539  .00000129  00000+0  31373-3 0  9995
2 55804  87.8937  58.2297 0000879 103.8230 256.2998 13.14499938 75228
ONEWEB-0641             
1 55805U 23029K   24252.91646707  .00000088  00000+0  18840-3 0  9993
2 55805  87.9095  73.5105 0001680  99.0197 261.1126 13.19722899 73677
ONEWEB-0642             
1 55806U 23029L   24253.51827817  .00000064  00000+0  12746-3 0  9997
2 55806  87.9100  73.4164 0002048 121.8478 238.2854 13.19725450 74438
ONEWEB-0643             
1 55807U 23029M   24252.90410164  .00000222  00000+0  56422-3 0  9998
2 55807  87.8940  58.2594 0002404 112.2136 247.9248 13.14504768 74480
ONEWEB-0644             
1 55808U 23029N   24252.90699257  .00000061  00000+0  11952-3 0  9991
2 55808  87.9102  73.5365 0001861 110.0179 250.1154 13.19722922 73667
